{"type": "FeatureCollection", "features": [ {"type": "Feature", "properties": {"norad_id": 66459, "name": "STARLINK-35449", "group": "last-30-days", "lat": 12.150898994710678, "lon": 113.46170848143151, "alt_km": 423.9159380464944, "timestamp": "2025-12-07T18:50:15.513465+00:00", "meta": {"OBJECT_NAME": "STARLINK-35449", "OBJECT_ID": "2025-262D", "EPOCH": "2025-12-07T06:00:04.999968", "MEAN_MOTION": 15.49401073, "ECCENTRICITY": 0.00013158, "INCLINATION": 43.0006, "RA_OF_ASC_NODE": 103.2204, "ARG_OF_PERICENTER": 258.2916, "MEAN_ANOMALY": 15.2391, "EPHEMERIS_TYPE": 0, "CLASSIFICATION_TYPE": "U", "NORAD_CAT_ID": 66459, "ELEMENT_SET_NO": 999, "REV_AT_EPOCH": 475, "BSTAR": -0.041355578, "MEAN_MOTION_DOT": -0.02069223, "MEAN_MOTION_DDOT": 0}, "tle": {"line1": "1 66459U 25262D   25341.25005787 -.02069223  00000+0 -41356-1 0  9991", "line2": "2 66459  43.0006 103.2204 0001315 258.2916  15.2391 15.49401073  4751"}}, "geometry": {"type": "Point", "coordinates": [113.46170848143151, 12.150898994710678]}}, {"type": "Feature", "properties": {"norad_id": 66460, "name": "STARLINK-35424", "group": "last-30-days", "lat": 15.472666254347468, "lon": 117.37106751290492, "alt_km": 419.46103938545093, "timestamp": "2025-12-07T18:50:15.513475+00:00", "meta": {"OBJECT_NAME": "STARLINK-35424", "OBJECT_ID": "2025-262E", "EPOCH": "2025-12-07T06:00:04.999968", "MEAN_MOTION": 15.50717358, "ECCENTRICITY": 0.00014933, "INCLINATION": 43.0007, "RA_OF_ASC_NODE": 103.2147, "ARG_OF_PERICENTER": 263.8719, "MEAN_ANOMALY": 12.1247, "EPHEMERIS_TYPE": 0, "CLASSIFICATION_TYPE": "U", "NORAD_CAT_ID": 66460, "ELEMENT_SET_NO": 999, "REV_AT_EPOCH": 475, "BSTAR": -0.038781991, "MEAN_MOTION_DOT": -0.02038036, "MEAN_MOTION_DDOT": 0}, "tle": {"line1": "1 66460U 25262E   25341.25005787 -.02038036  00000+0 -38782-1 0  9990", "line2": "2 66460  43.0007 103.2147 0001493 263.8719  12.1247 15.50717358  4754"}}, "geometry": {"type": "Point", "coordinates": [117.37106751290492, 15.472666254347468]}}, {"type": "Feature", "properties": {"norad_id": 66461, "name": "STARLINK-35132", "group": "last-30-days", "lat": 17.880269236858897, "lon": 120.33623998913717, "alt_km": 414.03553126203315, "timestamp": "2025-12-07T18:50:15.513485+00:00", "meta": {"OBJECT_NAME": "STARLINK-35132", "OBJECT_ID": "2025-262F", "EPOCH": "2025-12-07T06:00:04.999968", "MEAN_MOTION": 15.50732645, "ECCENTRICITY": 0.00017996, "INCLINATION": 43.0007, "RA_OF_ASC_NODE": 103.21, "ARG_OF_PERICENTER": 255.107, "MEAN_ANOMALY": 22.7939, "EPHEMERIS_TYPE": 0, "CLASSIFICATION_TYPE": "U", "NORAD_CAT_ID": 66461, "ELEMENT_SET_NO": 999, "REV_AT_EPOCH": 475, "BSTAR": -0.0081990942, "MEAN_MOTION_DOT": -0.00456847, "MEAN_MOTION_DDOT": 0}, "tle": {"line1": "1 66461U 25262F   25341.25005787 -.00456847  00000+0 -81991-2 0  9994", "line2": "2 66461  43.0007 103.2100 0001799 255.1070  22.7939 15.50732645  4758"}}, "geometry": {"type": "Point", "coordinates": [120.33623998913717, 17.880269236858897]}}, {"type": "Feature", "properties": {"norad_id": 66462, "name": "STARLINK-35499", "group": "last-30-days", "lat": 19.24100181815298, "lon": 122.07171655225615, "alt_km": 412.57017819827433, "timestamp": "2025-12-07T18:50:15.513501+00:00", "meta": {"OBJECT_NAME": "STARLINK-35499", "OBJECT_ID": "2025-262G", "EPOCH": "2025-12-07T06:00:04.999968", "MEAN_MOTION": 15.50537296, "ECCENTRICITY": 0.00015518, "INCLINATION": 43.0009, "RA_OF_ASC_NODE": 103.204, "ARG_OF_PERICENTER": 255.556, "MEAN_ANOMALY": 24.297, "EPHEMERIS_TYPE": 0, "CLASSIFICATION_TYPE": "U", "NORAD_CAT_ID": 66462, "ELEMENT_SET_NO": 999, "REV_AT_EPOCH": 475, "BSTAR": 0.0011730991, "MEAN_MOTION_DOT": 0.00068985, "MEAN_MOTION_DDOT": 0}, "tle": {"line1": "1 66462U 25262G   25341.25005787  .00068985  00000+0  11731-2 0  9990", "line2": "2 66462  43.0009 103.2040 0001551 255.5560  24.2970 15.50537296  4755"}}, "geometry": {"type": "Point", "coordinates": [122.07171655225615, 19.24100181815298]}}, {"type": "Feature", "properties": {"norad_id": 66463, "name": "STARLINK-35463", "group": "last-30-days", "lat": 21.61840157379571, "lon": 125.23389284185939, "alt_km": 412.3781625267966, "timestamp": "2025-12-07T18:50:15.513512+00:00", "meta": {"OBJECT_NAME": "STARLINK-35463", "OBJECT_ID": "2025-262H", "EPOCH": "2025-12-07T06:00:04.999968", "MEAN_MOTION": 15.5058449, "ECCENTRICITY": 0.00015269, "INCLINATION": 43.0007, "RA_OF_ASC_NODE": 103.195, "ARG_OF_PERICENTER": 260.7919, "MEAN_ANOMALY": 22.8873, "EPHEMERIS_TYPE": 0, "CLASSIFICATION_TYPE": "U", "NORAD_CAT_ID": 66463, "ELEMENT_SET_NO": 999, "REV_AT_EPOCH": 475, "BSTAR": -0.00073476651, "MEAN_MOTION_DOT": -0.00043218, "MEAN_MOTION_DDOT": 0}, "tle": {"line1": "1 66463U 25262H   25341.25005787 -.00043218  00000+0 -73477-3 0  9991", "line2": "2 66463  43.0007 103.1950 0001526 260.7919  22.8873 15.50584490  4755"}}, "geometry": {"type": "Point", "coordinates": [125.23389284185939, 21.61840157379571]}}, {"type": "Feature", "properties": {"norad_id": 66464, "name": "STARLINK-35435", "group": "last-30-days", "lat": 20.423761084437324, "lon": 123.62369131469636, "alt_km": 412.66991875699114, "timestamp": "2025-12-07T18:50:15.513521+00:00", "meta": {"OBJECT_NAME": "STARLINK-35435", "OBJECT_ID": "2025-262J", "EPOCH": "2025-12-07T06:00:04.999968", "MEAN_MOTION": 15.50610251, "ECCENTRICITY": 0.00014155, "INCLINATION": 43.0008, "RA_OF_ASC_NODE": 103.2001, "ARG_OF_PERICENTER": 254.3199, "MEAN_ANOMALY": 27.4427, "EPHEMERIS_TYPE": 0, "CLASSIFICATION_TYPE": "U", "NORAD_CAT_ID": 66464, "ELEMENT_SET_NO": 999, "REV_AT_EPOCH": 475, "BSTAR": -0.0016175345, "MEAN_MOTION_DOT": -0.00094206, "MEAN_MOTION_DDOT": 0}, "tle": {"line1": "1 66464U 25262J   25341.25005787 -.00094206  00000+0 -16175-2 0  9996", "line2": "2 66464  43.0008 103.2001 0001415 254.3199  27.4427 15.50610251  4752"}}, "geometry": {"type": "Point", "coordinates": [123.62369131469636, 20.423761084437324]}}, {"type": "Feature", "properties": {"norad_id": 66465, "name": "STARLINK-35448", "group": "last-30-days", "lat": 23.9528562014816, "lon": 128.52806557004044, "alt_km": 412.10627444255715, "timestamp": "2025-12-07T18:50:15.513531+00:00", "meta": {"OBJECT_NAME": "STARLINK-35448", "OBJECT_ID": "2025-262K", "EPOCH": "2025-12-07T06:00:04.999968", "MEAN_MOTION": 15.50578208, "ECCENTRICITY": 0.00015806, "INCLINATION": 43.0007, "RA_OF_ASC_NODE": 103.1856, "ARG_OF_PERICENTER": 258.3636, "MEAN_ANOMALY": 29.1538, "EPHEMERIS_TYPE": 0, "CLASSIFICATION_TYPE": "U", "NORAD_CAT_ID": 66465, "ELEMENT_SET_NO": 999, "REV_AT_EPOCH": 475, "BSTAR": -0.00059376763, "MEAN_MOTION_DOT": -0.00035019, "MEAN_MOTION_DDOT": 0}, "tle": {"line1": "1 66465U 25262K   25341.25005787 -.00035019  00000+0 -59377-3 0  9996", "line2": "2 66465  43.0007 103.1856 0001580 258.3636  29.1538 15.50578208  4759"}}, "geometry": {"type": "Point", "coordinates": [128.52806557004044, 23.9528562014816]}}, {"type": "Feature", "properties": {"norad_id": 66466, "name": "STARLINK-35388", "group": "last-30-days", "lat": 25.092264272605583, "lon": 130.2165131895814, "alt_km": 411.9424649030061, "timestamp": "2025-12-07T18:50:15.513541+00:00", "meta": {"OBJECT_NAME": "STARLINK-35388", "OBJECT_ID": "2025-262L", "EPOCH": "2025-12-07T06:00:04.999968", "MEAN_MOTION": 15.50580464, "ECCENTRICITY": 0.00015113, "INCLINATION": 43.0007, "RA_OF_ASC_NODE": 103.1797, "ARG_OF_PERICENTER": 257.1421, "MEAN_ANOMALY": 32.2939, "EPHEMERIS_TYPE": 0, "CLASSIFICATION_TYPE": "U", "NORAD_CAT_ID": 66466, "ELEMENT_SET_NO": 999, "REV_AT_EPOCH": 475, "BSTAR": -0.000703974, "MEAN_MOTION_DOT": -0.00041425, "MEAN_MOTION_DDOT": 0}, "tle": {"line1": "1 66466U 25262L   25341.25005787 -.00041425  00000+0 -70397-3 0  9990", "line2": "2 66466  43.0007 103.1797 0001511 257.1421  32.2939 15.50580464  4754"}}, "geometry": {"type": "Point", "coordinates": [130.2165131895814, 25.092264272605583]}}, {"type": "Feature", "properties": {"norad_id": 66467, "name": "STARLINK-35682", "group": "last-30-days", "lat": 22.79271670461762, "lon": 126.86484221955781, "alt_km": 412.29327386383375, "timestamp": "2025-12-07T18:50:15.513553+00:00", "meta": {"OBJECT_NAME": "STARLINK-35682", "OBJECT_ID": "2025-262M", "EPOCH": "2025-12-07T06:00:04.999968", "MEAN_MOTION": 15.50587473, "ECCENTRICITY": 0.0001569, "INCLINATION": 43.0008, "RA_OF_ASC_NODE": 103.1904, "ARG_OF_PERICENTER": 257.959, "MEAN_ANOMALY": 27.6382, "EPHEMERIS_TYPE": 0, "CLASSIFICATION_TYPE": "U", "NORAD_CAT_ID": 66467, "ELEMENT_SET_NO": 999, "REV_AT_EPOCH": 475, "BSTAR": -0.00087778584, "MEAN_MOTION_DOT": -0.00051515, "MEAN_MOTION_DDOT": 0}, "tle": {"line1": "1 66467U 25262M   25341.25005787 -.00051515  00000+0 -87779-3 0  9994", "line2": "2 66467  43.0008 103.1904 0001569 257.9590  27.6382 15.50587473  4751"}}, "geometry": {"type": "Point", "coordinates": [126.86484221955781, 22.79271670461762]}}, {"type": "Feature", "properties": {"norad_id": 66468, "name": "STARLINK-35331", "group": "last-30-days", "lat": 26.211122777295987, "lon": 131.93694317264166, "alt_km": 411.8638360324512, "timestamp": "2025-12-07T18:50:15.513565+00:00", "meta": {"OBJECT_NAME": "STARLINK-35331", "OBJECT_ID": "2025-262N", "EPOCH": "2025-12-07T06:00:04.999968", "MEAN_MOTION": 15.50587213, "ECCENTRICITY": 0.00015657, "INCLINATION": 43.0007, "RA_OF_ASC_NODE": 103.1757, "ARG_OF_PERICENTER": 254.5846, "MEAN_ANOMALY": 36.7657, "EPHEMERIS_TYPE": 0, "CLASSIFICATION_TYPE": "U", "NORAD_CAT_ID": 66468, "ELEMENT_SET_NO": 999, "REV_AT_EPOCH": 475, "BSTAR": -0.00092434369, "MEAN_MOTION_DOT": -0.0005421, "MEAN_MOTION_DDOT": 0}, "tle": {"line1": "1 66468U 25262N   25341.25005787 -.00054210  00000+0 -92434-3 0  9994", "line2": "2 66468  43.0007 103.1757 0001565 254.5846  36.7657 15.50587213  4758"}}, "geometry": {"type": "Point", "coordinates": [131.93694317264166, 26.211122777295987]}}]}